address_code,lat,lon,Senate_District,Assembly_District,County,Zip_Code,Website,Name,Legislation,Phone,Address,Membership Status
438%20main%20st%20%231200%2C%20buffalo%2C%20ny%2014202,42.88561371428571,-78.87451859,63,141,Erie County,14202,www.elderjusticeny.org,Center for Elder Law & Justice,"['Clean Hands', 'Statewide Right to Counsel', 'Defend Right to Counsel', 'Winter Eviction Moratorium']",716-853-3087,"438 Main St #1200, Buffalo, NY 14202",['Campaign Member']
351%20s%20warren%20st%2C%20syracuse%2C%20ny%2013202,43.0473887,-76.1504071,48,129,Onondaga County,13202,https://www.hlalaw.org/,Hiscock Legal Aid Society,['Statewide Right to Counsel'],315-422-8191,"351 S Warren St, Syracuse, NY 13202",['Endorser']
afscme%2C%20afl-cio%2C%20125%20barclay%20street%2C%20new%20york%2C%20ny%2010007,40.714348,-74.013015,27,66,New York County,10007,https://www.dc37.net/benefits/MELS,District Council 37 Municipal Employees Legal Services (DC37) - New York,"['Clean Hands', 'Statewide Right to Counsel', 'Defend Right to Counsel', 'Winter Eviction Moratorium']",212-815-1111,"AFSCME, AFL-CIO, 125 Barclay Street, New York, NY 10007",['Coalition Member']
151%20w%2030th%20st%20%236%2C%20new%20york%2C%20ny%2010001,40.7483075,-73.991803,28,75,New York County,10001,https://www.probono.net/,ProBono Net,['Statewide Right to Counsel'],212-760-2554,"151 W 30th St #6, New York, NY 10001",['Endorser']
301%20grove%20street%2C%20brooklyn%2C%20ny%2011237,40.69845625,-73.9157421,18,53,Kings County,11237,https://maketheroadny.org/,Make the Road New York - Brooklyn,['Statewide Right to Counsel'],718-418-7690,"301 Grove Street, Brooklyn, NY 11237",['Endorser']
450%207th%20avenue%2C%20rm.%202109%2C%20new%20york%2C%20ny%2010123,40.75148166666666,-73.99038824,28,75,New York County,10001,https://www.cb5.org/cb5m/?,Manhattan Community Board 5,['Statewide Right to Counsel'],212-465-0907,"450 7th Avenue, Rm. 2109, New York, NY 10123",['Supporter']
434%20s%205th%20st%2C%20brooklyn%2C%20ny%2011211,40.70699561,-73.95168288,18,53,Kings County,11211,www.southsideunitedhdfc.org,Los Sures,['Statewide Right to Counsel'],718-387-3600,"434 S 5th St, Brooklyn, NY 11211",['Endorser']
200%20willoughby%20ave%2C%20brooklyn%2C%20ny%2011205,40.6910823,-73.965137,25,57,Kings County,11205,www.prattcenter.net,Pratt Center for Community Development,['Statewide Right to Counsel'],718-636-3486,"200 Willoughby Ave, Brooklyn, NY 11205",['Endorser']
18%20sussex%20st%2C%20buffalo%2C%20ny%2014215,42.92732933333333,-78.828398,63,141,Erie County,14215,https://specbuffalo.org/,St. Philip's Episcopal Church,['Statewide Right to Counsel'],716-833-0442,"18 Sussex St, Buffalo, NY 14215",['Supporter']
121-18%20liberty%20ave%20%2C%20south%20richmond%20hill%2C%20ny%2011419,40.687039,-73.821751,15,24,Queens County,11419,www.chhayacdc.org,Chhaya CDC Richmond Hill Center,['Statewide Right to Counsel'],718-374-3371,"121-18 Liberty Ave 2nd floor, South Richmond Hill, NY 11419",['Supporter']
263%20w%2086th%20st%2C%20new%20york%2C%20ny%2010024,40.78855775,-73.97686025,47,67,New York County,10024,https://stpaulandstandrew.org/,St. Paul and St. Andrew United Methodist Church,['Statewide Right to Counsel'],212-362-3179,"263 W 86th St, New York, NY 10024",['Supporter']
40%20worth%20st%20suite%20606%2C%20new%20york%2C%20ny%2010013,40.7173052,-74.0069976,27,66,New York County,10013,www.legalservicesnyc.org,Legal Services NYC,"['Clean Hands', 'Statewide Right to Counsel', 'Defend Right to Counsel', 'Winter Eviction Moratorium']",646-442-3575,"40 Worth St Suite 606, New York, NY 10013",['Coalition Member']
long%20island%2C%20ny,,,,,,,https://longislandactivists.org/,Long Island Activists,"['Clean Hands', 'Statewide Right to Counsel', 'Defend Right to Counsel', 'Winter Eviction Moratorium']",,"Long Island, NY",['Campaign Member']
11%20park%20pl%20%231512%2C%20new%20york%2C%20ny%2010007,40.7130009,-74.0083413,27,66,New York County,10007,https://youthrepresent.org/,Youth Represent,['Statewide Right to Counsel'],646-759-8080,"11 Park Pl #1512, New York, NY 10007",['Endorser']
4812%209th%20ave%2C%20brooklyn%2C%20ny%2011220,40.64081518367348,-74.00057378,17,49,Kings County,11220,www.cpc-nyc.org,Chinese-American Planning Council ,['Statewide Right to Counsel'],718-431-2320,"4812 9th Ave, Brooklyn, NY 11220",['Endorser']
350%20w%2031st%20st%2C%20new%20york%2C%20ny%2010001,40.750803510204086,-73.99633851,47,75,New York County,10001,https://lssa2320.org/,Legal Services Staff Association 2320 (LSSA 2320),['Statewide Right to Counsel'],212-228-0097,"350 W 31st St, New York, NY 10001",['Endorser']
44%20court%20street%2C%20suite%201206%2Ck%20brooklyn%2C%20ny%2011201,40.692693,-73.991017,26,52,Kings County,11201,https://www.accessjusticebrooklyn.org/,Access Justice Brooklyn,['Statewide Right to Counsel'],718-624-3894,"44 Court Street, Suite 1206,k Brooklyn, NY 11201",['Endorser']
buffalo%2C%20ny,,,,,,,https://buffalo-dsa.org/,Buffalo Democratic Socialists of America,['Statewide Right to Counsel'],,"Buffalo, NY",['Endorser']
1064%20brighton%20road%2C%20tonawanda%2C%20ny%2014150,42.9914215,-78.833507,61,140,Erie County,14150,https://episcopalpartnership.org/,Episcopal Diocese WNY,['Statewide Right to Counsel'],716-881-0660,"1064 Brighton Road, Tonawanda, NY 14150",['Supporter']
148%20martine%20ave%2C%20white%20plains%2C%20ny%2010601,41.03116738099204,-73.76686565,37,93,Westchester County,10601,https://westchesterlegislators.com/,Westchester County Board of Legislators,['Statewide Right to Counsel'],,"148 Martine Ave, White Plains, NY 10601",['Endorser']
9%20johnsons%20ln%2C%20new%20city%2C%20ny%2010956,41.1296231,-73.9906921,38,96,Rockland County,10956,www.centerforsafetyandchange.org,Center for Safety & Change,['Statewide Right to Counsel'], 845-634-3391,"9 Johnsons Ln, New City, NY 10956",['Endorser']
349%20east%20149th%20st.%2C%20%2C%20bronx%2C%20ny%2010451,40.8167916,-73.9198227,29,84,Bronx County,10451,https://www.legalservicesnyc.org/our-program/bronx,Bronx Legal Services,"['Statewide Right to Counsel', 'Clean Hands', 'Winter Eviction Moratorium', 'Defend Right to Counsel']",917-661-4500,"349 East 149th St., 10th Floor, Bronx, NY 10451",['Coalition Member']
one%20w%20main%20st%2C%20rochester%2C%20ny%2014614,42.50934355,-78.67542406,60,147,Erie County,14141,https://www.lasroc.org/,Legal Aid Society of Rochester,['Statewide Right to Counsel'],585-232-4090,"One W Main St, Rochester, NY 14614",['Endorser']
4%20w%2043rd%20st%20suite%20%23407%2C%20new%20york%2C%20ny%2010036,40.7544434,-73.9813232,28,75,New York County,10110,https://www.nydis.org/,New York Disaster Interfaith Services,['Statewide Right to Counsel'],212-669-6100,"4 W 43rd St Suite #407, New York, NY 10036",['Supporter']
312%20broadway%20%2C%20brooklyn%2C%20ny%2011211,40.707843,-73.95650843,18,50,Kings County,11211,www.communitiesresist.org,Communities Resist,"['Clean Hands', 'Statewide Right to Counsel', 'Defend Right to Counsel', 'Winter Eviction Moratorium']", 646-974-8761,"312 Broadway 2nd Floor, Brooklyn, NY 11211",['Coalition Member']
1600%2050%2C%20broadway%2C%20new%20york%2C%20ny%2010004,40.760295,-73.984503,28,75,New York County,10019,https://www.alaa.org/,Association of Legal Aid Attorneys -- UAW Local 2325,['Statewide Right to Counsel'],212-343-0708,"1600 50, Broadway, New York, NY 10004",['Endorser']
brooklyn%2C%20ny,40.65973505,-74.00358737,26,51,Kings County,11232,https://brooklynevictiondefense.org/en/,Brooklyn Eviction Defense,['Winter Eviction Moratorium'],917-982-2265,"Brooklyn, NY",['Endorser']
47-01%20queens%20blvd%20%23203b%2C%20sunnyside%2C%20ny%2011104,40.743327,-73.917577,12,37,Queens County,11104,www.catholicmigration.org,Catholic Migration Services,"['Clean Hands', 'Statewide Right to Counsel', 'Defend Right to Counsel', 'Winter Eviction Moratorium']",347-472-3500,"47-01 Queens Blvd #203b, Sunnyside, NY 11104",['Coalition Member']
85%20chestnut%20st.%2C%20albany%2C%20ny%2012210,42.6535144,-73.7613522,46,109,Albany County,12210,https://www.laborreligion.org/,Greater New York Labor Religion Coalition,['Statewide Right to Counsel'],,"85 Chestnut St., Albany, NY 12210",['Supporter']
1%20steuben%20place%20suite%20120%2C%20albany%2C%20ny%2012207,42.65176505,-73.75200146,46,109,Albany County,12207,www.preventchildabuseny.org,Prevent Child Abuse New York,"['Clean Hands', 'Statewide Right to Counsel', 'Defend Right to Counsel', 'Winter Eviction Moratorium']",800-244-5373,"1 Steuben Place Suite 120, Albany, NY 12207",['Campaign Member']
30%20s%20broadway%2C%20suite%20701%2C%20yonkers%2C%20ny%2010701,40.93293027961433,-73.89869699,35,90,Westchester County,10701,https://www.hvjc.org/,Hudson Valley Justice Center - Yonkers,"['Statewide Right to Counsel', 'Clean Hands', 'Defend Right to Counsel', 'Winter Eviction Moratorium']",914-308-3490 ,"30 S Broadway, Suite 701, Yonkers, NY 10701",['Campaign Member']
mamaroneck%2C%20ny,,,,,,,https://mcah.squarespace.com/,Mamaroneck Coalition for Affordable Housing,"['Winter Eviction Moratorium', 'Statewide Right to Counsel']",,"Mamaroneck, NY",['Endorser']
10%20little%20britain%20road%2C%20suite%2C%20newburgh%2C%20ny%2012550%20202,41.50027116797425,-74.03136429,39,104,Orange County,12550,https://www.hvjc.org/,Hudson Valley Justice Center - Orange County,"['Statewide Right to Counsel', 'Clean Hands', 'Defend Right to Counsel', 'Winter Eviction Moratorium']",914-308-3490,"10 Little Britain Road, Suite, Newburgh, NY 12550 202",['Campaign Member']
2%20gramatan%20avenue%2C%20room%20312%2C%20po%20box%202107%2C%20mt.%20vernon%2C%20ny,40.912048,-73.837594,36,89,Westchester County,10550,https://mvut.org/,Mt Vernon United Tenants,"['Clean Hands', 'Statewide Right to Counsel', 'Defend Right to Counsel', 'Winter Eviction Moratorium']",914-699-1114,"2 Gramatan Avenue, Room 312, PO Box 2107, Mt. Vernon, NY",['Campaign Member']
1049%20wegman%20rd%2C%20rochester%2C%20ny%2014624,43.1491088,-77.7124535,56,137,Monroe County,14624,https://gatespres.org/,Gates Presbyterian Church,['Statewide Right to Counsel'],585-247-5292,"1049 Wegman Rd, Rochester, NY 14624",['Supporter']
myron%20taylor%20hall%2C%20ithaca%2C%20ny%2014853,42.44383375,-76.48578542,52,125,Tompkins County,14850,www.lawschool.cornell.edu,Cornell Law School Tenants Advocacy Practicum,['Statewide Right to Counsel'],607-255-5141,"Myron Taylor Hall, Ithaca, NY 14853",['Endorser']
460%20aviation%20rd%2C%20queensbury%2C%20ny%2012804,43.3285808,-73.68721606,45,114,Warren County,12804,https://www.umcq.org/,Queensbury United Methodist Church,['Statewide Right to Counsel'],518-793-9728,"460 Aviation Rd, Queensbury, NY 12804",['Supporter']
161%20port%20richmond%20avenue%2C%20staten%20island%2C%20ny%2010302,40.6371634,-74.1338219,23,61,Richmond County,10302,https://maketheroadny.org/,Make the Road New York - Staten Island,['Statewide Right to Counsel'],718-727-1222,"161 Port Richmond Avenue, Staten Island, NY 10302",['Endorser']
335%20e%2077th%20st%2C%20new%20york%2C%20ny%2010075,40.77165130434783,-73.95491674,28,76,New York County,10075,https://www.cbyarmonk.org/,Congregation B'nai Yisrael,['Statewide Right to Counsel'],212-879-1558,"335 E 77th St, New York, NY 10075",['Supporter']
118-21%20queens%20blvd%2C%20forest%20hills%2C%20ny%2011375,40.7150191,-73.8315347,14,27,Queens County,11375,www.queensdefenders.com,Queens Defenders,['Statewide Right to Counsel'],718-261-3047,"118-21 Queens Blvd, Forest Hills, NY 11375",['Endorser']
613%20new%20lots%20ave%2C%20brooklyn%2C%20ny%2011207,40.6648125,-73.8866216,19,60,Kings County,11207,https://ucceny.org/,United Community Centers Inc,['Statewide Right to Counsel'],718-649-7979,"613 New Lots Ave, Brooklyn, NY 11207",['Endorser']
539%20alabama%20ave%2C%20brooklyn%2C%20ny%2011207,40.6626998,-73.8962794,19,60,Kings County,11207,https://hcr.ny.gov/location/east-new-york-urban-youth-corps-inc,East Newyork Urban Youth Corps,['Statewide Right to Counsel'],718-922-2311,"539 Alabama Ave, Brooklyn, NY 11207",['Endorser']
205%20jefferson%20blvd%2C%20staten%20island%2C%20ny%2010312,40.5446658,-74.1816976,24,62,Richmond County,10312,https://www.messiahny.org/,Messiah Lutheran Church,['Statewide Right to Counsel'],718-356-1050,"205 Jefferson Blvd, Staten Island, NY 10312",['Supporter']
55%20hester%20st%2C%20new%20york%2C%20ny%2010002,40.71580651612904,-73.99030223,27,65,New York County,10002,www.caaav.org,CAAAV: Organizing Asian Communities,"['Clean Hands', 'Statewide Right to Counsel', 'Defend Right to Counsel', 'Winter Eviction Moratorium']",212-473-6485,"55 Hester St, New York, NY 10002",['Campaign Member']
126%20state%20st%20suite%20302%2C%20albany%2C%20ny%2012207,42.6502385,-73.7548659,46,109,Albany County,12207,www.npcnys.org,"Neighborhood Preservation Coalition of New York State, Inc.","['Clean Hands', 'Statewide Right to Counsel', 'Defend Right to Counsel', 'Winter Eviction Moratorium']",518-432-6757,"126 State St Suite 302, Albany, NY 12207",['Campaign Member']
362%20state%20st%2C%20albany%2C%20ny%2012210,42.6559972,-73.765033,46,109,Albany County,12210,https://firstpresalbany.org/,First Presbyterian Church of Albany,['Statewide Right to Counsel'],518-449-7332,"362 State St, Albany, NY 12210",['Supporter']
14%20w%20170th%20st%2C%20bronx%2C%20ny%2010452,40.84064244,-73.91869869,29,84,Bronx County,10452,,Sanctuary Church,['Statewide Right to Counsel'],,"14 W 170th St, Bronx, NY 10452",['Supporter']
45%20wadsworth%20ave%2C%20new%20york%2C%20ny%2010033,40.84681759090909,-73.93729514,31,72,New York County,10033,www.nmic.org,Northern Manhattan Improvement Corporation,"['Clean Hands', 'Statewide Right to Counsel', 'Defend Right to Counsel', 'Winter Eviction Moratorium']",212-822-8300,"45 Wadsworth Ave, New York, NY 10033",['Coalition Member']
405%20rxr%20plaza%2C%20uniondale%2C%20ny%2011556,40.720289,-73.58378,6,18,Nassau County,11556,https://www.chaplains.care/,New York State Chaplain Task Force,['Statewide Right to Counsel'],718-749-8534,"405 RXR Plaza, Uniondale, NY 11556",['Supporter']
19%20court%20street%2C%20suite%20305%2C%20white%20plains%2C%20ny%2010601,41.0320414,-73.7673361,37,93,Westchester County,10601,https://www.hvjc.org/,Hudson Valley Justice Center - Westchester County,"['Statewide Right to Counsel', 'Clean Hands', 'Defend Right to Counsel', 'Winter Eviction Moratorium']",914-308-3490,"19 Court Street, Suite 305, White Plains, NY 10601",['Campaign Member']
320%20carleton%20ave%2C%20central%20islip%2C%20ny%2011722,40.76654,-73.1960336,4,6,Suffolk County,11722,https://empirejustice.org/,Empire Justice Center - Long Island,"['Clean Hands', 'Statewide Right to Counsel', 'Defend Right to Counsel', 'Winter Eviction Moratorium']",631-533-5240,"320 Carleton Ave, Central Islip, NY 11722",['Campaign Member']
299%20broadway%2C%20brooklyn%2C%20ny%2010007,40.714104,-74.006487,27,66,New York County,10007,https://mobilizationforjustice.org/,Mobilization For Justice,"['Clean Hands', 'Statewide Right to Counsel', 'Defend Right to Counsel', 'Winter Eviction Moratorium']",212-417-3700,"299 Broadway, Brooklyn, NY 10007",['Coalition Member']
14%20jefferson%20st%2C%20new%20york%2C%20ny%2010002,40.713795600000005,-73.9887524,27,65,New York County,10002,https://socialists.nyc/working-groups/,NYC DSA Housing Working Group,"['Statewide Right to Counsel', 'Winter Eviction Moratorium']",,"14 Jefferson St, New York, NY 10002",['Endorser']
40%20worth%20st%20suite%20829%2C%20new%20york%2C%20ny%2010013,40.7173052,-74.0069976,27,66,New York County,10013,https://volsprobono.org/,Volunteers of Legal Service,['Statewide Right to Counsel'],212-966-4400,"40 Worth St Suite 829, New York, NY 10013",['Endorser']
35%20marcy%20pl%2C%20bronx%2C%20ny%2010452,40.8385615,-73.9172203,32,84,Bronx County,10452,www.casapower.org,CASA: Community Action for Safe Apartments,"['Clean Hands', 'Statewide Right to Counsel', 'Defend Right to Counsel', 'Winter Eviction Moratorium']",718-716-8000,"35 Marcy Pl, Bronx, NY 10452",['Coalition Member']
24%20eagle%20st%20%23%20202%2C%20albany%2C%20ny%2012207,42.653103214285714,-73.75362705,46,109,Albany County,12207,https://www.albanyny.gov/2187/Albany-Common-Council,Albany Common Council,['Statewide Right to Counsel'],518-434-5087,"24 Eagle St # 202, Albany, NY 12207",['Endorser']
438%20main%20st%20%2C%20buffalo%2C%20ny%2014202,42.88561371428571,-78.87451859,63,141,Erie County,14202,https://ecbavlp.com/,"Erie County Bar Association Volunteer Lawyers Project, Inc.",['Statewide Right to Counsel'],716-847-0662,"438 Main St 7th floor, Buffalo, NY 14202",['Endorser']
331%20e%2070th%20st%2C%20new%20york%2C%20ny%2010021,40.76716995652174,-73.95833243,28,76,New York County,10021,https://www.lenoxhill.org/,Lenox Hill Neighborhood House ,['Statewide Right to Counsel'],212-744-5022,"331 E 70th St, New York, NY 10021",['Endorser']
189%20n%20water%20st%2C%20rochester%2C%20ny%2014604%2C%20usa,43.15980697959184,-77.61153745,56,137,Monroe County,14604,https://www.vocal-ny.org/chapter/rochester/,VOCAL-NY - Rochester,['Statewide Right to Counsel'],718-802-9540,"189 N Water St, Rochester, NY 14604, USA",['Endorser']
80%20north%20broadway%2C%20white%20plains%2C%20ny%2010603,41.03966268631709,-73.76699252,37,93,Westchester County,10603,https://empirejustice.org/,Empire Justice Center - White Plains,"['Clean Hands', 'Statewide Right to Counsel', 'Defend Right to Counsel', 'Winter Eviction Moratorium']",,"80 North Broadway, White Plains, NY 10603",['Campaign Member']
300%20douglass%20st%2C%20brooklyn%2C%20ny%2011217,40.679187,-73.98166,26,52,Kings County,11217,https://www.vocal-ny.org/,VOCAL-NY - New York,['Statewide Right to Counsel'],718-802-9540,"300 Douglass St, Brooklyn, NY 11217",['Endorser']
51-23%20queens%20blvd%2C%20queens%2C%20ny%2011377,40.74283,-73.913165,12,37,Queens County,11377,www.woodsideonthemove.org,Woodside On the Move,"['Statewide Right to Counsel', 'Winter Eviction Moratorium']",718-476-8449,"51-23 Queens Blvd, Queens, NY 11377",['Endorser']
1124%20culver%20road%2C%20rochester%2C%20ny%2014609,43.165713,-77.5628964,55,138,Monroe County,14609,https://www.covenantroc.org/,Covenant United Methodist Church,['Statewide Right to Counsel'],585-456 - 1979,"1124 Culver Road, Rochester, NY 14609",['Supporter']
960%20main%20st%2C%20buffalo%2C%20ny%2014202,42.9007341,-78.8696585,63,141,Erie County,14202,https://wnyhomeless.org/,Homeless Alliance of Western NY,['Statewide Right to Counsel'],716-853-1101,"960 Main St, Buffalo, NY 14202",['Endorser']
one%20west%20main%20street%2C%20ste.%20200%2C%20rochester%2C%20ny%2014614,43.1554214,-77.61310156,56,137,Monroe County,14614,https://empirejustice.org/,Empire Justice Center - Rochester,"['Clean Hands', 'Statewide Right to Counsel', 'Defend Right to Counsel', 'Winter Eviction Moratorium']",585-454-4060,"One West Main Street, Ste. 200, Rochester, NY 14614",['Campaign Member']
640%20johnson%20ave%2C%20bohemia%2C%20ny%2011716,40.78040478000204,-73.09676938,8,7,Suffolk County,11716,www.lifairhousing.org,Long Island Housing Services Inc,"['Clean Hands', 'Statewide Right to Counsel', 'Defend Right to Counsel', 'Winter Eviction Moratorium']",631-567-5111,"640 Johnson Ave, Bohemia, NY 11716",['Campaign Member']
120%20wall%20st%20%2C%20new%20york%2C%20ny%2010005,40.704558,-74.006184,27,65,New York County,10005,www.uhab.org,UHAB | Urban Homesteading Assistance Board,['Statewide Right to Counsel'],212-479-3300,"120 Wall St 20th floor, New York, NY 10005",['Endorser']
331%20w%2038th%20st%2C%20new%20york%2C%20new%20york%2010018%2C%20us,40.75517022,-73.99250292,47,75,New York County,10018,https://midtownsouthcc.org/,Midtown South Community Council,"['Statewide Right to Counsel', 'Winter Eviction Moratorium', 'Clean Hands', 'Defend Right to Counsel']",,"331 W 38th St, New York, New York 10018, US",['Coalition Member']
syracuse%2C%20new%20york,,,,,,,https://www.syracusetenantsunion.com/about,Syracuse Tenant Union,"['Clean Hands', 'Statewide Right to Counsel', 'Defend Right to Counsel', 'Winter Eviction Moratorium']",315-308-0130,"Syracuse, New York",['Campaign Member']
751%20james%20st%2C%20syracuse%2C%20ny%2013203,43.05573830612245,-76.14178949,48,129,Onondaga County,13203,https://syracusetenant.org/,Greater Syracuse Tenants Network,['Statewide Right to Counsel'],315-475-8092,"751 James St, Syracuse, NY 13203",['Supporter']
177%20livingston%20st%20%237%2C%20brooklyn%2C%20ny%2011201,40.6901951,-73.9867963,26,52,Kings County,11201,www.bds.org,Brooklyn Defender Services,"['Clean Hands', 'Statewide Right to Counsel', 'Defend Right to Counsel', 'Winter Eviction Moratorium']",718-254-0700,"177 Livingston St #7, Brooklyn, NY 11201",['Coalition Member']
85%20chestnut%20st%2C%20albany%2C%20ny%2012210,42.6535144,-73.7613522,46,109,Albany County,12210,https://wpcalbany.org/,Westminster Presbyterian Church,['Statewide Right to Counsel'],518-449-7332,"85 Chestnut St, Albany, NY 12210",['Supporter']
239%20seguine%20ave%2C%20staten%20island%2C%20ny%2010309,40.520652,-74.197552,24,62,Richmond County,10309,https://www.princebaycommunitychurch.org/,Prince’s Bay Reformed Church,['Statewide Right to Counsel'],718-984-4526,"239 Seguine Ave, Staten Island, NY 10309",['Supporter']
221%20s%20warren%20st%20%23300%2C%20syracuse%2C%20ny%2013202,43.04929740816327,-76.15063784,48,129,Onondaga County,13202,https://www.lscny.org/,Legal Services of Central New York,['Statewide Right to Counsel'],315-703-6500,"221 S Warren St #300, Syracuse, NY 13202",['Endorser']
westchester%20county%2C%20ny%2C%20usa,41.031235,-73.759928,37,93,Westchester County,10605,https://www.vocal-ny.org/chapter/westchester-county/,VOCAL-NY - Westchester County,['Statewide Right to Counsel'],718-802-9540,"Westchester County, NY, USA",['Endorser']
505%20park%20ave%20%23620%2C%20new%20york%2C%20ny%2010022,40.763121,-73.969525,28,73,New York County,10022,https://www.cb8m.com/,Manhattan Community Board 8,['Statewide Right to Counsel'],212-758-4340,"505 Park Ave #620, New York, NY 10022",['Endorser']
621%20degraw%20st%2C%20brooklyn%2C%20ny%2011217,40.67886588,-73.98240819,26,52,Kings County,11217,www.nhnhome.org,Neighbors Helping Neighbors,"['Clean Hands', 'Statewide Right to Counsel', 'Defend Right to Counsel', 'Winter Eviction Moratorium']",718-237-2017,"621 Degraw St, Brooklyn, NY 11217",['Campaign Member']
385%20watervliet-shaker%20road%2C%20latham%2C%20ny%2012110-4799,42.7293503,-73.7385651,43,110,Albany County,12110,https://csjcarondelet.org/locations/albany/,Sisters of St. Joseph of Carondelet,['Statewide Right to Counsel'],518-783-3500,"385 Watervliet-Shaker Road, Latham, NY 12110-4799",['Supporter']
hudson%20valley%2C%20ny,41.88982285,-74.01495356,41,103,Ulster County,12401,https://lssa2320.org/,"Legal Services of the Hudson Valley's Staff Attorney Association, National Organization of Legal Service Workers, Local 2320",['Statewide Right to Counsel'],212-228-0992,"Hudson Valley, NY",['Endorser']
777%2010th%20ave%20%231%2C%20new%20york%2C%20ny%2010019,40.76567086956522,-73.991193,47,67,New York County,10019,www.hcc-nyc.org,Housing Conservation Coordinators,"['Clean Hands', 'Statewide Right to Counsel', 'Defend Right to Counsel', 'Winter Eviction Moratorium']",212-541-5996,"777 10th Ave #1, New York, NY 10019",['Coalition Member']
2295%20adam%20clayton%20powell%20blvd.%20%231%2C%20new%20york%20city%2C%20ny%2010030,40.814959,-73.943629,30,70,New York County,10030,https://pslweb.org/,Party for Socialism and Liberation - New York City,['Statewide Right to Counsel'],212-694-8762,"2295 Adam Clayton Powell Blvd. #1, New York City, NY 10030",['Endorser']
120%20e%20169th%20st%2C%20bronx%2C%20ny%2010452,40.83690720408163,-73.917442,29,84,Bronx County,10452,http://www.walkermemorialbaptistchurch.com/,Walker Memorial Baptist Church,['Statewide Right to Counsel'],718-588-4262,"120 E 169th St, Bronx, NY 10452",['Supporter']
151%20lawrence%20st%20%2C%20brooklyn%2C%20ny%2011201,40.69178577142857,-73.98618477,26,52,Kings County,11201,www.wearebcs.org,Brooklyn Community Services,['Statewide Right to Counsel'],718-310-5600,"151 Lawrence St 4th floor, Brooklyn, NY 11201",['Endorser']
470%20mamaroneck%20ave%20%23%20410%2C%20white%20plains%2C%20ny%2010605,41.0226218,-73.7601182,37,88,Westchester County,10605,www.wroinc.org,Westchester Residential Opportunities,['Statewide Right to Counsel'],914-428-4507,"470 Mamaroneck Ave # 410, White Plains, NY 10605",['Endorser']
90%20pennsylvania%20ave%2C%20massapequa%2C%20ny%2011758,40.6786797,-73.4721662,8,17,Nassau County,11758,www.lipc.org,Long Island Progressive Coalition,"['Clean Hands', 'Statewide Right to Counsel', 'Defend Right to Counsel', 'Winter Eviction Moratorium']",516-541-1006,"90 Pennsylvania Ave, Massapequa, NY 11758",['Campaign Member']
129%20fulton%20st%2C%20new%20york%2C%20ny%2010038,40.7102102,-74.0075044,27,65,New York County,10038,www.coalitionforthehomeless.org,Coalition for the Homeless,"['Clean Hands', 'Statewide Right to Counsel', 'Defend Right to Counsel', 'Winter Eviction Moratorium']",212-776-2000,"129 Fulton St, New York, NY 10038",['Coalition Member']
35%20orchard%20st%2C%20white%20plains%2C%20ny%2010603,41.04715775,-73.76640311,37,93,Westchester County,10603,www.liftingupwestchester.org,Lifting Up Westchester,['Statewide Right to Counsel'],914-949-3098,"35 Orchard St, White Plains, NY 10603",['Endorser']
ridgewood%2C%20queens%2C%20ny,,,,,,,https://www.ridgewoodtenantsunion.org/,Ridgewood Tenants Union,"['Clean Hands', 'Statewide Right to Counsel', 'Defend Right to Counsel', 'Winter Eviction Moratorium']",732-835-2344,"Ridgewood, Queens, NY",['Coalition Member']
496%20western%20hwy%20s%2C%20blauvelt%2C%20ny%2010913,41.053427,-73.955152,38,97,Rockland County,10962,,Sisters of St. Dominic,['Statewide Right to Counsel'],845-359-5691,"496 Western Hwy S, Blauvelt, NY 10913",['Supporter']
194-59%20murdock%20ave%2C%20queens%2C%20ny%2011412,40.6991422,-73.7584484,14,33,Queens County,11412,https://www.facebook.com/GreaterMtCalvaryNY/,Greater Mt. Calvary,['Statewide Right to Counsel'],718-465-8881,"194-59 Murdock Ave, Queens, NY 11412",['Supporter']
555%20w%2057th%20st%2C%20suite%20603%2C%20new%20york%2C%20new%20york%2010019,40.7700413,-73.9902036,47,67,New York County,10019,https://justiceandopportunity.org/,John Jay College Institute for Justice and Opportunity,['Statewide Right to Counsel'],,"555 W 57th St, Suite 603, New York, New York 10019",['Endorser']
syracuse%2C%20ny%2C%20usa,,,,,,,https://www.vocal-ny.org/chapter/syracuse/,VOCAL-NY - Syracuse,['Statewide Right to Counsel'],718-802-9540,"Syracuse, NY, USA",['Endorser']
rockland%20county%2C%20ny,41.1330926,-74.08863955,38,98,Rockland County,10901,https://www.dc37.net/benefits/MELS,District Council 37 Municipal Employees Legal Services (DC37) - Rockland,"['Clean Hands', 'Statewide Right to Counsel', 'Defend Right to Counsel', 'Winter Eviction Moratorium']",212-815-1111,"Rockland County, NY",['Coalition Member']
2024%20richmond%20ave%2C%20staten%20island%2C%20ny%2010314,40.59845055555556,-74.162671,24,63,Richmond County,10314,https://www.facebook.com/SICouncil/,Staten Island Council of Churches,['Statewide Right to Counsel'],718-761-6782,"2024 Richmond Ave, Staten Island, NY 10314",['Supporter']
1542%20main%20st%2C%20buffalo%2C%20ny%2014209,42.9154872,-78.8646268,61,141,Erie County,14209,www.homeny.org,Housing Opportunities Made Equal (HOME),['Statewide Right to Counsel'],716-854-1400,"1542 Main St, Buffalo, NY 14209",['Endorser']
256%20otange%20st.%2C%20ste%20203%2C%20albany%2C%20ny%2012210,42.658234,-73.758934,46,109,Albany County,12210,,"The Alternative to Economic and Housing Displacement, Inc.","['Clean Hands', 'Statewide Right to Counsel', 'Defend Right to Counsel', 'Winter Eviction Moratorium']",,"256 Otange St., Ste 203, Albany, NY 12210",['Campaign Member']
1010%206th%20ave%2C%20new%20york%2C%20ny%2010018,40.75192223076923,-73.98611192,28,75,New York County,10018,www.cidny.org,"Center For Independence of the Disabled, New York","['Clean Hands', 'Statewide Right to Counsel', 'Defend Right to Counsel', 'Winter Eviction Moratorium']",212-674-2300,"1010 6th Ave, New York, NY 10018",['Coalition Member']
55%20washington%20square%20s%2C%20new%20york%2C%20ny%2010012,40.730295,-73.998307,27,66,New York County,10012,https://www.judson.org/,Judson Memorial Church,['Statewide Right to Counsel'],212-477-0351,"55 Washington Square S, New York, NY 10012",['Supporter']
633%203rd%20ave%20%2C%20new%20york%2C%20ny%2010017,40.749776,-73.974898,59,73,New York County,10017,www.cssny.org,Community Service Society,"['Clean Hands', 'Statewide Right to Counsel', 'Defend Right to Counsel', 'Winter Eviction Moratorium']",212-254-8900,"633 3rd Ave 10th floor, New York, NY 10017",['Coalition Member']
24%20aviation%20rd%20%23101%2C%20albany%2C%20ny%2012205,42.7156256,-73.8029548,43,110,Albany County,12205,https://legalproject.org/,The Legal Project,['Statewide Right to Counsel'],518-435-1770,"24 Aviation Rd #101, Albany, NY 12205",['Endorser']
31%20w%20church%20st%2C%20fairport%2C%20ny%2014450,43.09848876470589,-77.44356035,55,135,Monroe County,14450,https://fairportumc.org/,Fairport United Methodist Church,['Statewide Right to Counsel'],585-223-9560,"31 W Church St, Fairport, NY 14450",['Supporter']
1845%20wantagh%20ave%2C%20wantagh%2C%20ny%2011793,40.67625542755695,-73.50971336,5,14,Nassau County,11793,https://wmcc1845.com/,Wantagh Memorial Congregational Church,['Statewide Right to Counsel'],516-785-1829,"1845 Wantagh Ave, Wantagh, NY 11793",['Supporter']
727%20classon%20ave%2C%20brooklyn%2C%20ny%2011238,40.6751107,-73.9598562,20,57,Kings County,11238,www.crownheightstenantunion.org,Crown Heights Tenant Union,"['Clean Hands', 'Statewide Right to Counsel', 'Defend Right to Counsel', 'Winter Eviction Moratorium']",212-479-3358,"727 Classon Ave, Brooklyn, NY 11238",['Coalition Member']
new%20york%2C%20ny,,,,,,,,NY Council of Housing Development Fund Companies,['Winter Eviction Moratorium'],,"New York, NY",['Endorser']
460%20irving%20ave%2C%20brooklyn%2C%20ny%2011237,40.6958048,-73.9089887,18,54,Kings County,11237,https://www.facebook.com/LifehouseNY/,LIFEhouse Community of Faith,['Statewide Right to Counsel'],,"460 Irving Ave, Brooklyn, NY 11237",['Supporter']
336%20central%20park%20ave%2C%20white%20plains%2C%20ny%2010530,41.03200256,-73.78664519,37,93,Westchester County,10606,www.uwwp.org,United Way of Westchester and Putnam,['Statewide Right to Counsel'],914-997-6700,"336 Central Park Ave, White Plains, NY 10530",['Endorser']
69%20state%20st%2C%20albany%2C%20ny%2C%20usa,42.6498206,-73.7520531,46,109,Albany County,12207,https://www.vocal-ny.org/chapter/albany/,VOCAL-NY - Albany,['Statewide Right to Counsel'],718-802-9540,"69 State St, Albany, NY, USA",['Endorser']
100%20broadway%2C%20%2C%20new%20york%2C%20ny%2010005,40.7080664,-74.0112859,27,61,New York County,10005,https://www.herjustice.org/,Her Justice,['Statewide Right to Counsel'],212-695-3800,"100 Broadway, 10th floor, New York, NY 10005",['Endorser']
475%20ny-304%20suite%201%2C%20new%20city%2C%20ny%2010956,41.17714455,-73.95950317,38,96,Rockland County,10956,www.rhachomes.org,"Rockland Housing Action Coalition, Inc.","['Clean Hands', 'Statewide Right to Counsel', 'Defend Right to Counsel', 'Winter Eviction Moratorium']",845-708-5799,"475 NY-304 Suite 1, New City, NY 10956",['Campaign Member']
92-10%20roosevelt%20avenue%2C%20jackson%20heights%2C%20ny%2011372,40.7485278,-73.874226,13,34,Queens County,11373,https://maketheroadny.org/,Make the Road New York - Queens,['Statewide Right to Counsel'],718-565-8500,"92-10 Roosevelt Avenue, Jackson Heights, NY 11372",['Endorser']
20%20snyder%20ave%2C%20brooklyn%2C%20ny%2011226,40.64847519,-73.95768131,21,42,Kings County,11226,www.camba.org,CAMBA,"['Clean Hands', 'Statewide Right to Counsel', 'Defend Right to Counsel', 'Winter Eviction Moratorium']",718-940-6311,"20 Snyder Ave, Brooklyn, NY 11226",['Coalition Member']
20%20soundview%20ave%20-%20white%20plains%2C%20ny%2010606,41.01947205029323,-73.77473885,37,88,Westchester County,10606,https://www.nyac.com/contact-the-catskill-hudson-district,Catskill Hudson District - NY Conference of the United Methodist Church,['Statewide Right to Counsel'],914-615-2233,"20 Soundview Ave - White Plains, NY 10606",['Supporter']
37%20franklin%20st%20%2C%20buffalo%2C%20ny%2014202,42.881694565217394,-78.87790426,63,141,Erie County,14202,https://wnylc.com/,Western New York Law Center (WNYLC),['Statewide Right to Counsel'],716-855-0203,"37 Franklin St 2nd floor, Buffalo, NY 14202",['Endorser']
416%20woodland%20dr%2C%20south%20hempstead%2C%20ny%2011550,40.686444,-73.620765,6,21,Nassau County,11550,https://www.theccsh.org/,Congregational Church of South Hempstead,['Statewide Right to Counsel'],516-489-3610,"416 Woodland Dr, South Hempstead, NY 11550",['Supporter']
6917%204th%20ave%2C%20brooklyn%2C%20ny%2011209,40.6341291,-74.0235101,26,64,Kings County,11209,https://www.blcdelmar.com/,Bethlehem Lutheran,['Statewide Right to Counsel'],718-748-9502,"6917 4th Ave, Brooklyn, NY 11209",['Supporter']
57%20willoughby%20st%2C%20brooklyn%2C%20ny%2011201,40.6923114,-73.986632,26,52,Kings County,11201,https://www.housingworks.org/,Housing Works,['Statewide Right to Counsel'],347-473-7400,"57 Willoughby St, Brooklyn, NY 11201",['Endorser']
402%20south%20ave%2C%20rochester%2C%20ny%2014620,43.14794065631212,-77.60590209,55,138,Monroe County,14620,www.rochestercitywidetenantunion.org,City-Wide Tenant Union of Rochester,"['Clean Hands', 'Statewide Right to Counsel', 'Defend Right to Counsel', 'Winter Eviction Moratorium']",585-210-0705,"402 South Ave, Rochester, NY 14620",['Campaign Member']
431%20new%20karner%20rd%2C%20blg%201%2C%20albany%2C%20ny%2012205,42.7379789,-73.8420552,43,110,Albany County,12205,https://www.upperroomicc.org/,Upper Room Inclusive Catholic Community,['Statewide Right to Counsel'],,"431 New Karner Rd, Blg 1, Albany, NY 12205",['Supporter']
72-18%20roosevelt%20ave%2C%20queens%2C%20ny%2011372,40.746572,-73.892856,12,30,Queens County,11377,https://www.drumnyc.org/,Drum-Desis Rising Up & Moving,['Statewide Right to Counsel'],718-205-3036,"72-18 Roosevelt Ave, Queens, NY 11372",['Endorser']
2%20kingsland%20ave%2C%20brooklyn%2C%20ny%2011211,40.716978,-73.940105,18,53,Kings County,11211,https://www.facebook.com/UNOTenantPower/,United Neighbors Organization (UNO) at SNA,['Statewide Right to Counsel'],718-388-5454,"2 Kingsland Ave, Brooklyn, NY 11211",['Endorser']
196%20mt%20hope%20dr%2C%20albany%2C%20ny%2012202,42.631529581054245,-73.7697802,46,109,Albany County,12202,https://cdalf.org/albany-central-federation-labor-afl-cio,Albany County Central Federation of Labor (ACCFL),['Statewide Right to Counsel'],,"196 Mt Hope Dr, Albany, NY 12202",['Supporter']
1%20w%20main%20st%20%23500%2C%20rochester%2C%20ny%2014614,43.1555562,-77.6128795,56,137,Monroe County,14614,www.justcauseny.org,JustCause,"['Clean Hands', 'Statewide Right to Counsel', 'Defend Right to Counsel', 'Winter Eviction Moratorium']",585-232-3051,"1 W Main St #500, Rochester, NY 14614",['Campaign Member']
250%20w%2087th%20st%20%23%202%2C%20new%20york%2C%20ny%2010024,40.78919236734694,-73.97671902,47,67,New York County,10024,https://www.nyc.gov/site/manhattancb7/index.page,Manhattan Community Board 7,['Statewide Right to Counsel'],212-362-4008,"250 W 87th St # 2, New York, NY 10024",['Supporter']
79%20brooklyn%20st%2C%20portville%2C%20ny%2014770,42.03855361193963,-78.33174364,57,148,Cattaraugus County,14770,https://bethelportvilleny.org/,Bethel Lutheran Church,['Statewide Right to Counsel'],716-933-6699,"79 Brooklyn St, Portville, NY 14770",['Supporter']
80%20new%20scotland%20ave%2C%20albany%2C%20ny%2012208,42.65391809090909,-73.77299968,46,109,Albany County,12208,https://www.albanylaw.edu/the-justice-center/pro-bono-society,Albany Law School Landlord Tenant Pro Bono Society,['Statewide Right to Counsel'],518-445-2328,"80 New Scotland Ave, Albany, NY 12208",['Supporter']
475%20riverside%20dr%2C%20new%20york%2C%20ny%2010115,40.8109391,-73.9640163,30,69,New York County,10115,https://www.nycpresbytery.org/,Presbytery of New York City,['Statewide Right to Counsel'],212-870-2221,"475 Riverside Dr, New York, NY 10115",['Supporter']
55%20prospect%20st%2C%20brooklyn%2C%20ny%2011201,40.7007816,-73.9882207,26,52,Kings County,11201,https://www.justfix.org/,JustFix.nyc,"['Clean Hands', 'Statewide Right to Counsel', 'Defend Right to Counsel', 'Winter Eviction Moratorium']",,"55 Prospect St, Brooklyn, NY 11201",['Campaign Member']
46%20waller%20ave%2C%20white%20plains%2C%20ny%2010605,41.02702093333333,-73.76294767,37,93,Westchester County,10605,https://maketheroadny.org/,Make the Road New York - White Plains,['Statewide Right to Counsel'],914-948-8466,"46 Waller Ave, White Plains, NY 10605",['Endorser']
360%20e%20161%20st%2C%20bronx%2C%20ny%2010451,40.824525,-73.915405,32,79,Bronx County,10451,www.bronxdefenders.org,The Bronx Defenders,"['Clean Hands', 'Statewide Right to Counsel', 'Defend Right to Counsel', 'Winter Eviction Moratorium']",718-838-7878,"360 E 161 St, Bronx, NY 10451",['Coalition Member']
247%20west%2037th%20street%2C%20new%20york%2C%20ny%2010018,40.75353206122449,-73.99052988,28,75,New York County,10018,https://www.jasa.org/services/legal,JASA/Legal Services for Elder Justice,['Statewide Right to Counsel'],212-273-5200 ,"247 West 37th Street, New York, NY 10018",['Endorser']
7th%20ave%2C%20west%20117th%20street%2C%20st%20nicholas%20ave%2C%20new%20york%2C%20ny%2010026,40.803201,-73.950107,30,70,New York County,10026,https://www.facebook.com/APhilipRandolphSquareAlliance/,A Philip Randolph Square Neighborhood Alliance,"['Winter Eviction Moratorium', 'Statewide Right to Counsel']",212-639-9675,"7th Ave, West 117th Street, St Nicholas Ave, New York, NY 10026",['Endorser']
339%20lafayette%20st%20%23301%2C%20new%20york%2C%20ny%2010012,40.7260097,-73.9944654,27,66,New York County,10012,https://www.metcouncilonhousing.org/,Met Council on Housing,"['Clean Hands', 'Statewide Right to Counsel', 'Defend Right to Counsel', 'Winter Eviction Moratorium']",212-979-0611,"339 Lafayette St #301, New York, NY 10012",['Campaign Member']
22%20us%20oval%20unit%20101%2C%20plattsburgh%2C%20ny%2012903,44.6845569,-73.4466145,45,115,Clinton County,12903,https://rurallawcenter.org/,Rural Law Center of New York,['Statewide Right to Counsel'],518-561-5460,"22 US Oval unit 101, Plattsburgh, NY 12903",['Endorser']
50%20broad%20st%20%23%201402%2C%20new%20york%2C%20ny%2010004,40.705819,-74.011562,27,65,New York County,10004,www.anhd.org,Association for Neighborhood & Housing Development,['Statewide Right to Counsel'],212-747-1117,"50 Broad St # 1402, New York, NY 10004",['Endorser']
11%20e%20fulton%20ave%2C%20roosevelt%2C%20ny%2011575,40.67603684782608,-73.58757002,6,18,Nassau County,11575,https://www.facebook.com/Truevineministries2013/,True Vine Ministries COGIC,['Statewide Right to Counsel'],516-515-1469,"11 E Fulton Ave, Roosevelt, NY 11575",['Supporter']
498%207th%20ave%2C%20new%20york%2C%20ny%2010018,40.752827,-73.989417,28,75,New York County,10018,www.1199seiubenefits.org,1199SEIU ,['Statewide Right to Counsel'],646-473-9200,"498 7th Ave, New York, NY 10018",['Endorser']
646%20state%20street%2C%20albany%2C%20ny%2012203,42.66238037142857,-73.7756946,46,109,Albany County,12203,https://www.capareacc.org/,Capital Area Council of Churches,['Statewide Right to Counsel'],518-462-5450,"646 State Street, Albany, NY 12203",['Supporter']
134%20center%20ave%2C%20mamaroneck%2C%20ny%2010543,40.9536138,-73.7397746,37,91,Westchester County,10543,https://www.crcny.org/,Community Resource Center of Larchmont and Mamaroneck (CRC),"['Clean Hands', 'Statewide Right to Counsel', 'Defend Right to Counsel', 'Winter Eviction Moratorium']",​914-835-1512,"134 Center Ave, Mamaroneck, NY 10543",['Campaign Member']
108%20norfolk%20st%2C%20new%20york%2C%20ny%2010002,40.71859282758621,-73.987133,27,65,New York County,10002,https://www.aafe.org/,Asian Americans for Equality (AAFE),"['Clean Hands', 'Statewide Right to Counsel', 'Defend Right to Counsel', 'Winter Eviction Moratorium']",212-979-8381,"108 Norfolk St, New York, NY 10002",['Campaign Member']
117-35%20235th%20street%2C%20cambria%20heights%2C%20ny%2011411,40.689863,-73.727502,14,33,Queens County,11411,https://saintdavidsepiscopal.com/,St. David's Episcopal Church,['Statewide Right to Counsel'],718-528-2095,"117-35 235th Street, Cambria Heights, NY 11411",['Supporter']
yonkers%2C%20ny,,,,,,,https://www.lhvdsa.org/,Lower Hudson Valley Democratic Socialists of America,['Statewide Right to Counsel'],,"Yonkers, NY",['Endorser']
260%20broadway%20%23%202%2C%20brooklyn%2C%20ny%2011211,40.7088316,-73.9595169,18,50,Kings County,11211,www.bka.org,Brooklyn Legal Services Corporation A,"['Clean Hands', 'Statewide Right to Counsel', 'Defend Right to Counsel', 'Winter Eviction Moratorium']",718-487-2300,"260 Broadway # 2, Brooklyn, NY 11211",['Coalition Member']
235%20w%2023rd%20st%2C%20new%20york%2C%20ny%2010011,40.7447425,-73.9967747,47,75,New York County,10011,www.nyycl.org,Young Communist League,"['Clean Hands', 'Statewide Right to Counsel', 'Defend Right to Counsel', 'Winter Eviction Moratorium']",212-741-2016,"235 W 23rd St, New York, NY 10011",['Coalition Member']
7%20marcus%20garvey%20blvd%2C%20brooklyn%2C%20ny%2011206,40.6998011,-73.9412448,25,56,Kings County,11206,www.cuffh.org,Churches United For Fair Housing,"['Clean Hands', 'Statewide Right to Counsel', 'Defend Right to Counsel', 'Winter Eviction Moratorium']",718-360-2906,"7 Marcus Garvey Blvd, Brooklyn, NY 11206",['Campaign Member']
hudson%20valley%2C%20ny%2C%20usa,41.88982285,-74.01495356,41,103,Ulster County,12401,https://www.vocal-ny.org/chapter/hudson-valley/,VOCAL-NY - Hudson Valley,['Statewide Right to Counsel'],718-802-9540,"Hudson Valley, NY, USA",['Endorser']
429%20plymouth%20ave%20suite%201%2C%20ground%20floor%2C%20buffalo%2C%20ny%2014213,42.9093004,-78.8919879,63,149,Erie County,14213,www.pushbuffalo.org,PUSH Buffalo,['Statewide Right to Counsel'],716-884-0356,"429 Plymouth Ave Suite 1, Ground Floor, Buffalo, NY 14213",['Endorser']
290%20main%20street%2C%20suite%20400%2C%20buffalo%2C%20ny%2014202,42.8821137,-78.875838,63,141,Erie County,14202,https://legalaidbuffalo.org/,"Legal Aid Bureau of Buffalo, Inc.",['Statewide Right to Counsel'],716-853-9555,"290 Main Street, Suite 400, Buffalo, NY 14202",['Endorser']
33%20w%20main%20st%20suite%20404%2C%20elmsford%2C%20ny%2010523,41.0571232,-73.8235661,35,92,Westchester County,10523,http://programdesign.com/index.php?page=who-pdd-is,"Program Design and Development, LLC",['Statewide Right to Counsel'],914-592-1272,"33 W Main St suite 404, Elmsford, NY 10523",['Endorser']
215%20west%20125th%20street%2C%20%2C%20new%20york%2C%20ny%2010027,40.8094195,-73.9488561,30,70,New York County,10027,https://cbmanhattan.cityofnewyork.us/cb10/,Manhattan Community Board 10,['Statewide Right to Counsel'],212-749-3105,"215 West 125th Street, 4th Floor, New York, NY 10027",['Endorser']
201%20w%2013th%20st%2C%20new%20york%2C%20ny%2010011,40.7381368,-74.0005681,47,66,New York County,10011,https://www.churchofthevillage.org/,Church of the Village (NYC),['Statewide Right to Counsel'],212-243-5470,"201 W 13th St, New York, NY 10011",['Supporter']
buffalo%2C%20ny%2C%20usa,,,,,,,https://www.vocal-ny.org/chapter/buffalo/,VOCAL-NY - Buffalo,['Statewide Right to Counsel'],718-802-9540,"Buffalo, NY, USA",['Endorser']
westchester%20county%2C%20ny,41.031235,-73.759928,37,93,Westchester County,10605,https://www.dc37.net/benefits/MELS,District Council 37 Municipal Employees Legal Services (DC37) - Westchester,"['Clean Hands', 'Statewide Right to Counsel', 'Defend Right to Counsel', 'Winter Eviction Moratorium']",212-815-1111,"Westchester County, NY",['Coalition Member']
305%207th%20ave.%2C%20%2C%20new%20york%2C%20ny%2010001,40.74674769230769,-73.99359362,28,75,New York County,10001,https://workersunitednynj.org/about/,Workers United NY NJ Regional Joint Board,['Statewide Right to Counsel'],212-475-3131,"305 7th Ave., 7th Floor, New York, NY 10001",['Endorser']
103%20e%20196th%20st%2C%20bronx%2C%20ny%2010468,40.86838979591836,-73.89394373,33,78,Bronx County,10468,www.northwestbronx.org,Northwest Bronx Community & Clergy,"['Clean Hands', 'Statewide Right to Counsel', 'Defend Right to Counsel', 'Winter Eviction Moratorium']",718-584-0515,"103 E 196th St, Bronx, NY 10468",['Coalition Member']
387%202nd%20avenue%2C%20no.%20608%2C%20new%20york%2C%20ny%2010010,40.73769581818181,-73.98116845,59,74,New York County,10010,https://moderncourts.org/,Fund for Modern Courts,"['Statewide Right to Counsel', 'Winter Eviction Moratorium', 'Clean Hands', 'Defend Right to Counsel']",,"387 2nd Avenue, No. 608, New York, NY 10010",['Endorser']
1050%20east%20ave%2C%20rochester%2C%20ny%2014607,43.151003,-77.5760248,55,138,Monroe County,14607,https://asburyfirst.org/,Asbury First United Methodist Church,['Statewide Right to Counsel'],585-271-1050,"1050 East Ave, Rochester, NY 14607",['Supporter']
387%202nd%20ave%20%23608%2C%20new%20york%2C%20ny%2010010,40.73769581818181,-73.98116845,59,74,New York County,10010,www.moderncourts.org,Fund For Modern Courts,['Statewide Right to Counsel'],212-541-6741,"387 2nd Ave #608, New York, NY 10010",['Endorser']
1616%20newkirk%20ave%2C%20brooklyn%2C%20ny%2011226,40.63597930612245,-73.96218312,21,42,Kings County,11226,https://flatbushpower.org/,Flatbush Tenant Coalition,"['Statewide Right to Counsel', 'Clean Hands', 'Winter Eviction Moratorium', 'Defend Right to Counsel']",718-635-2623,"1616 Newkirk Ave, Brooklyn, NY 11226",['Coalition Member']
70-35%20112th%20st%2C%20queens%2C%20ny%2011375,40.7233409,-73.83916533,14,27,Queens County,11375,https://www.presbyfh.org/,Forest Hills Presbyterian Church,['Statewide Right to Counsel'],718-268-4036,"70-35 112th St, Queens, NY 11375",['Supporter']
165%20w%20105th%20st%2C%20new%20york%2C%20ny%2010025,40.7996733,-73.9657257,30,69,New York County,10025,www.iahh.org,Interfaith Assembly On Homelessness and Housing,"['Clean Hands', 'Statewide Right to Counsel', 'Defend Right to Counsel', 'Winter Eviction Moratorium']",212-316-3171,"165 W 105th St, New York, NY 10025",['Coalition Member']
361%20main%20st%2C%20catskill%2C%20ny%2012414,42.2184437,-73.8654031,41,102,Greene County,12414,https://www.hudsoncatskillhousing.org/,Hudson Catskill Housing Coalition,"['Clean Hands', 'Statewide Right to Counsel', 'Defend Right to Counsel', 'Winter Eviction Moratorium']",518-291-9415,"361 Main St, Catskill, NY 12414",['Campaign Member']
1090%20suffolk%20avenue%2C%20brentwood%2C%20ny%2011717,40.7849032,-73.2294168,4,6,Suffolk County,11717,https://maketheroadny.org/,Make the Road New York - Long Island,['Statewide Right to Counsel'],631-231-2220,"1090 Suffolk Avenue, Brentwood, NY 11717",['Endorser']
125%20broad%20st%20%2C%20new%20york%2C%20ny%2010004,40.7022035,-74.0101408,27,61,New York County,10004,https://www.nyclu.org/,New York Civil Liberties Union (NYCLU),['Statewide Right to Counsel'],212-607-3300,"125 Broad St 19th floor, New York, NY 10004",['Endorser']
470%20mamaroneck%20ave%2C%20white%20plains%2C%20ny%2010605,41.0226218,-73.7601182,37,88,Westchester County,10605,www.wca4kids.org,Westchester Children's Association,['Statewide Right to Counsel'],914-946-7676,"470 Mamaroneck Ave, White Plains, NY 10605",['Endorser']
suffolk%20county%2C%20ny,40.76554295,-73.01827757,3,7,Suffolk County,11772,https://www.dc37.net/benefits/MELS,District Council 37 Municipal Employees Legal Services (DC37) - Suffolk,"['Clean Hands', 'Statewide Right to Counsel', 'Defend Right to Counsel', 'Winter Eviction Moratorium']",212-815-1111,"Suffolk County, NY",['Coalition Member']
syracuse%2C%20ny,,,,,,,https://syracusedsa.org/contact/,Syracuse Democratic Socialists of America,['Winter Eviction Moratorium'],,"Syracuse, NY",['Endorser']
42%20west%2044th%20street%2C%20new%20york%2C%20ny%2010036,40.75528641666666,-73.9813595,28,75,New York County,10036,https://www.citybarjusticecenter.org/,City Bar Justice Center,['Statewide Right to Counsel'],212-626-7383,"42 West 44th Street, New York, NY 10036",['Endorser']
106%20w%20145th%20st%2C%20new%20york%2C%20ny%2010039,40.820492061224485,-73.93657904,30,71,New York County,10030,https://nationalactionnetwork.net/,National Action Network,"['Statewide Right to Counsel', 'Winter Eviction Moratorium', 'Clean Hands', 'Defend Right to Counsel']",212-690-3070,"106 W 145th St, New York, NY 10039",['Coalition Member']
new%20york%2C%20new%20york,,,,,,,https://housingcourtanswers.org/,Housing Court Answers,"['Clean Hands', 'Statewide Right to Counsel', 'Defend Right to Counsel', 'Winter Eviction Moratorium']",212-962-4795,"New York, New York",['Coalition Member']
2005%20palmer%20ave%20%231122%2C%20larchmont%2C%20ny%2010538,40.9306719,-73.7618804,37,91,Westchester County,10538,https://www.wjci.org/,Westchester Jewish Coalition for Immigration,"['Clean Hands', 'Statewide Right to Counsel', 'Defend Right to Counsel', 'Winter Eviction Moratorium']",,"2005 Palmer Ave #1122, Larchmont, NY 10538",['Campaign Member']
919%203rd%20ave%2C%20new%20york%2C%20ny%2010022,40.7585412,-73.967277,28,73,New York County,10022,www.aarp.org,AARP,['Statewide Right to Counsel'],212-319-5294,"919 3rd Ave, New York, NY 10022",['Endorser']
119%20washington%20avenue%2C%20albany%2C%20ny%2012210,42.6555451,-73.7598629,46,109,Albany County,12210,https://empirejustice.org/,Empire Justice Center - Albany,"['Clean Hands', 'Statewide Right to Counsel', 'Defend Right to Counsel', 'Winter Eviction Moratorium']",518-462-6831 ,"119 Washington Avenue, Albany, NY 12210",['Campaign Member']
100%20pearl%20st%20%2C%20new%20york%2C%20ny%2010004,40.704856,-74.008707,27,65,New York County,10005,www.nylag.org,New York Legal Assistance Group,"['Clean Hands', 'Statewide Right to Counsel', 'Defend Right to Counsel', 'Winter Eviction Moratorium']",212-613-5000,"100 Pearl St 19th floor, New York, NY 10004",['Coalition Member']
1012%208th%20ave%2C%20brooklyn%2C%20ny%2011215,40.66504663265306,-73.97993829,20,44,Kings County,11215,https://churchofgethsemane.org/,The Church of Gethsemane,['Statewide Right to Counsel'],718-499-6704,"1012 8th Ave, Brooklyn, NY 11215",['Supporter']
3748%20ny-430%2C%20bemus%20point%2C%20ny%2014712,42.14367100359165,-79.36437128,57,150,Chautauqua County,14712,https://www.sttimothybemus.com/,St. Timothy Lutheran Church,['Statewide Right to Counsel'],716-386-7280,"3748 NY-430, Bemus Point, NY 14712",['Supporter']
625%20jamaica%20ave%2C%20brooklyn%2C%20ny%2011208,40.68288944295302,-73.88768831,18,54,Kings County,11208,https://www.cypresshills.org/,Cypress Hills Local Development Corporation,['Statewide Right to Counsel'],718-647-2800,"625 Jamaica Ave, Brooklyn, NY 11208",['Endorser']
one%20exchange%20plaza%2C%2055%20broadway%20ste%20309%2C%20new%20york%2C%20ny%2010002,40.7068408,-74.01304198,27,61,New York County,10006,https://dignityandrights.org/,Partners for Dignity and Rights,"['Clean Hands', 'Statewide Right to Counsel', 'Defend Right to Counsel', 'Winter Eviction Moratorium']",212-253-1710,"One Exchange Plaza, 55 Broadway Ste 309, New York, NY 10002",['Campaign Member']
121%20fitzhugh%20street%20north%2C%20rochester%2C%20ny%2014614,43.1574356,-77.6160992,56,137,Monroe County,14608,https://www.rochesteracts.org/,RocACTS Religious Leaders Caucus,['Statewide Right to Counsel'],585.546-7669,"121 Fitzhugh Street North, Rochester, NY 14614",['Supporter']
30%20south%20broadway%2C%20%2C%20yonkers%2C%20ny%2010701,40.93293027961433,-73.89869699,35,90,Westchester County,10701,https://empirejustice.org/,Empire Justice Center - Yonkers,"['Clean Hands', 'Statewide Right to Counsel', 'Defend Right to Counsel', 'Winter Eviction Moratorium']",914-595-0910,"30 South Broadway, 6th Floor, Yonkers, NY 10701",['Campaign Member']
115%20e%20106th%20st%20%23%203%2C%20new%20york%2C%20ny%2010029,40.79277608333334,-73.9473125,29,68,New York County,10029,www.cvhaction.org,Community Voices Heard,['Statewide Right to Counsel'],212-860-6001,"115 E 106th St # 3, New York, NY 10029",['Endorser']
424%20w.%2033rd%20street%2C%20suite%20580%2C%20new%20york%2C%20ny%2010001,40.753019,-73.9982095,47,75,New York County,10001,https://cbmanhattan.cityofnewyork.us/cb4/about/,Manhattan Community Board 4,['Statewide Right to Counsel'],212-736-4536,"424 W. 33rd Street, Suite 580, New York, NY 10001",['Supporter']
albany%2C%20new%20york,,,,,,,https://www.facebook.com/profile.php?id=100064544210388,Solidarity Committee of the Capital District,"['Clean Hands', 'Statewide Right to Counsel', 'Defend Right to Counsel', 'Winter Eviction Moratorium']",,"Albany, New York",['Campaign Member']
20%20greenridge%20ave%2C%20white%20plains%2C%20ny%2010605,41.02454326034737,-73.76509294,37,88,Westchester County,10605,https://www.hiwp.org/,Hebrew Institute of White Plains,['Statewide Right to Counsel'],914-948-3095,"20 Greenridge Ave, White Plains, NY 10605",['Supporter']
p.o.%20box%203821%20·%20albany%20ny%2012203,,,,,,,https://capitaldistrictdsa.org/,Capital District Democratic Socialists of America,"['Clean Hands', 'Statewide Right to Counsel', 'Defend Right to Counsel', 'Winter Eviction Moratorium']",,P.O. Box 3821 · Albany NY 12203,['Campaign Member']
277%20broadway%2C%20new%20york%2C%20ny%2010013,40.7143506,-74.0063658,27,66,New York County,10007,https://www.facebook.com/tenantspac/,Tenants PAC,['Statewide Right to Counsel'],,"277 Broadway, New York, NY 10013",['Endorser']
51%20w%20109th%20st%2C%20new%20york%2C%20ny%2010025,40.8007509,-73.9601869,30,69,New York County,10025,www.goddard.org,Goddard Riverside Law Project,"['Clean Hands', 'Statewide Right to Counsel', 'Defend Right to Counsel', 'Winter Eviction Moratorium']", 212-799-9638,"51 W 109th St, New York, NY 10025",['Coalition Member']
parking%20lot%2C%20317%20lenox%20ave%2C%20new%20york%2C%20ny%2010027,40.80839,-73.945365,30,70,New York County,10027,www.ndsny.org,Neighborhood Defender Service of Harlem,"['Clean Hands', 'Statewide Right to Counsel', 'Defend Right to Counsel', 'Winter Eviction Moratorium']",212-876-5500,"Parking lot, 317 Lenox Ave, New York, NY 10027",['Coalition Member']
4750%20white%20plains%20rd%2C%20bronx%2C%20ny%2010470,40.904422,-73.84964567,36,81,Bronx County,10470,https://www.nyac.com/churchdetail/270587,Wakefield Grace United Methodist Church,['Statewide Right to Counsel'],718-324-1648,"4750 White Plains Rd, Bronx, NY 10470",['Supporter']
49%20w%2045th%20st%20%2C%20new%20york%2C%20ny%2010036,40.756147285714285,-73.98101445,28,75,New York County,10036,www.liveon-ny.org,LiveOn NY,"['Clean Hands', 'Statewide Right to Counsel', 'Defend Right to Counsel', 'Winter Eviction Moratorium']",212-398-6565,"49 W 45th St 7th Floor, New York, NY 10036",['Coalition Member']
91%20broadway%20%23%2010%2C%20greenlawn%2C%20ny%2011740,40.8663308,-73.3647835,2,12,Suffolk County,11740,www.housinghelpinc.org,Housing Help Inc,"['Clean Hands', 'Statewide Right to Counsel', 'Defend Right to Counsel', 'Winter Eviction Moratorium']",631-754-0373,"91 Broadway # 10, Greenlawn, NY 11740",['Campaign Member']
275%20state%20st%2C%20albany%2C%20ny%2012210,42.65432980585089,-73.76143172,46,109,Albany County,12210,www.focuschurches.net,FOCUS Churches of Albany Inc,['Statewide Right to Counsel'],518-443-0460,"275 State St, Albany, NY 12210",['Supporter']
astoria%2C%20new%20york,,,,,,,https://www.instagram.com/astoriatenantunion/?hl=en,Astoria Tenants Union,"['Clean Hands', 'Statewide Right to Counsel', 'Defend Right to Counsel', 'Winter Eviction Moratorium']",,"Astoria, New York",['Campaign Member']
27%20arion%20pl%20flat%20116%2C%20brooklyn%2C%20ny%2011206,40.69825651020408,-73.93645535,18,53,Kings County,11206,https://withfriends.co/opera_house_tenant_union/about,The Opera House Tenants Union,['Statewide Right to Counsel'],,"27 Arion Pl Flat 116, Brooklyn, NY 11206",['Endorser']
albany%2C%20ny,,,,,,,"https://utalbany.org/housing-for-all/#:~:text=Housing%20for%20All%20is%20a,in%20the%20City%20of%20Albany.",Housing for All Albany,['Statewide Right to Counsel'],,"Albany, NY",['Endorser']
302a%20mill%20st%20suite%20f%2C%20poughkeepsie%2C%20ny%2012601,41.704598,-73.925863,39,104,Dutchess County,12601,www.forthemany.org,For the Many,"['Clean Hands', 'Statewide Right to Counsel', 'Defend Right to Counsel', 'Winter Eviction Moratorium']",845-481-0703,"302A Mill St Suite F, Poughkeepsie, NY 12601",['Campaign Member']
nassau%20county%2C%20ny,40.7229536,-73.6627939,9,19,Nassau County,11530,https://www.dc37.net/benefits/MELS,District Council 37 Municipal Employees Legal Services (DC37) - Nassau,"['Clean Hands', 'Statewide Right to Counsel', 'Defend Right to Counsel', 'Winter Eviction Moratorium']",212-815-1111,"Nassau County, NY",['Coalition Member']
30-30%20northern%20blvd%20%23302%2C%20queens%2C%20ny%2011101,40.751361,-73.933829,12,36,Queens County,11101,www.fairhousingjustice.org,"Fair Housing Justice Center, Inc.",['Statewide Right to Counsel'],212-400-8201,"30-30 Northern Blvd #302, Queens, NY 11101",['Endorser']
1047%20amsterdam%20ave%2C%20new%20york%2C%20ny%2010025,40.803047612244896,-73.96368224,30,69,New York County,10025,https://dioceseny.org/,Episcopal Diocese of New York,['Statewide Right to Counsel'],,"1047 Amsterdam Ave, New York, NY 10025",['Supporter']
9035%20148th%20st%2C%20jamaica%2C%20ny%2011435,40.701347,-73.80608,14,32,Queens County,11435,https://qcba.org/page-18081,"Queens Volunteer Lawyers Project, Inc.",['Statewide Right to Counsel'],718-739-4100,"9035 148th St, Jamaica, NY 11435",['Endorser']
28%20wells%20ave%2C%20yonkers%2C%20ny%2010701,40.936496,-73.89989,35,89,Westchester County,10701,www.clusterinc.org,"Cluster, Inc",['Statewide Right to Counsel'],914-963-6440,"28 Wells Ave, Yonkers, NY 10701",['Supporter']
199%20water%20st%2C%20new%20york%2C%20ny%2010038,40.7072009,-74.0041584,27,65,New York County,10038,www.legalaidnyc.org,The Legal Aid Society,"['Clean Hands', 'Statewide Right to Counsel', 'Defend Right to Counsel', 'Winter Eviction Moratorium']",212-577-3300,"199 Water St, New York, NY 10038",['Coalition Member']
155%20washington%20ave%20%23208%2C%20albany%2C%20ny%2012210,42.6563989,-73.7617797,46,109,Albany County,12210,https://ilny.us/,New York Association on Independent Living,['Statewide Right to Counsel'],518-465-4650,"155 Washington Ave #208, Albany, NY 12210",['Endorser']
123%20william%20st%20%2C%20new%20york%2C%20ny%2010038,40.709216,-74.006888,27,65,New York County,10038,https://takerootjustice.org/,TakeRoot Justice,"['Clean Hands', 'Statewide Right to Counsel', 'Defend Right to Counsel', 'Winter Eviction Moratorium']",212-810-6744,"123 William St 16th floor, New York, NY 10038",['Coalition Member']
40%20rector%20st%20floor%209%2C%20new%20york%2C%20ny%2010006,40.7085722,-74.0147295,27,61,New York County,10006,www.urbanjustice.org,Safety Net Project of the Urban Justice Center,"['Clean Hands', 'Statewide Right to Counsel', 'Defend Right to Counsel', 'Winter Eviction Moratorium']",646-602-5600,"40 Rector St Floor 9, New York, NY 10006",['Coalition Member']
14%20walworth%20st%2C%20saratoga%20springs%2C%20ny%2012866,43.08072835483871,-73.79174968,44,113,Saratoga County,12866,www.sheltersofsaratoga.org,Shelters of Saratoga Inc,['Statewide Right to Counsel'],518-581-1097,"14 Walworth St, Saratoga Springs, NY 12866",['Endorser']
617%20main%20st%20%23300%2C%20buffalo%2C%20ny%2014203,42.8907026,-78.8724926,63,141,Erie County,14203,https://ppgbuffalo.org/,Partnership for the Public Good,['Statewide Right to Counsel'],716-852-4191,"617 Main St #300, Buffalo, NY 14203",['Endorser']
255%20orange%20st%2C%20albany%2C%20ny%2012210,42.6586276,-73.7587756,46,109,Albany County,12210,www.unitedtenantsalbany.org,United Tenants of Albany,"['Clean Hands', 'Statewide Right to Counsel', 'Defend Right to Counsel', 'Winter Eviction Moratorium']",518-436-8997,"255 Orange St, Albany, NY 12210",['Campaign Member']
729%20w%20181st%20st%2C%20new%20york%2C%20ny%2010033,40.85034442857143,-73.93603686,31,72,New York County,10033,https://www.ftjc.org/,Fort Tryon Jewish Center,['Statewide Right to Counsel'],347-618-2450,"729 W 181st St, New York, NY 10033",['Supporter']
,,,,,,,,,,,,
lat,lon,Senate_District,Assembly_District,County,Zip_Code,Website,Name,Legislation,Phone,Address,Membership Status,
42.88561371428571,-78.87451859,63,141,Erie County,14202,www.elderjusticeny.org,Center for Elder Law & Justice,"['Clean Hands', 'Statewide Right to Counsel', 'Defend Right to Counsel', 'Winter Eviction Moratorium']",716-853-3087,"438 Main St #1200, Buffalo, NY 14202",['Campaign Member'],
43.0473887,-76.1504071,48,129,Onondaga County,13202,https://www.hlalaw.org/,Hiscock Legal Aid Society,['Statewide Right to Counsel'],315-422-8191,"351 S Warren St, Syracuse, NY 13202",['Endorser'],
40.714348,-74.013015,27,66,New York County,10007,https://www.dc37.net/benefits/MELS,District Council 37 Municipal Employees Legal Services (DC37) - New York,"['Clean Hands', 'Statewide Right to Counsel', 'Defend Right to Counsel', 'Winter Eviction Moratorium']",212-815-1111,"AFSCME, AFL-CIO, 125 Barclay Street, New York, NY 10007",['Coalition Member'],
40.7483075,-73.991803,28,75,New York County,10001,https://www.probono.net/,ProBono Net,['Statewide Right to Counsel'],212-760-2554,"151 W 30th St #6, New York, NY 10001",['Endorser'],
40.69845625,-73.9157421,18,53,Kings County,11237,https://maketheroadny.org/,Make the Road New York - Brooklyn,['Statewide Right to Counsel'],718-418-7690,"301 Grove Street, Brooklyn, NY 11237",['Endorser'],
40.75148166666666,-73.99038824,28,75,New York County,10001,https://www.cb5.org/cb5m/?,Manhattan Community Board 5,['Statewide Right to Counsel'],212-465-0907,"450 7th Avenue, Rm. 2109, New York, NY 10123",['Supporter'],
40.70699561,-73.95168288,18,53,Kings County,11211,www.southsideunitedhdfc.org,Los Sures,['Statewide Right to Counsel'],718-387-3600,"434 S 5th St, Brooklyn, NY 11211",['Endorser'],
40.6910823,-73.965137,25,57,Kings County,11205,www.prattcenter.net,Pratt Center for Community Development,['Statewide Right to Counsel'],718-636-3486,"200 Willoughby Ave, Brooklyn, NY 11205",['Endorser'],
42.92732933333333,-78.828398,63,141,Erie County,14215,https://specbuffalo.org/,St. Philip's Episcopal Church,['Statewide Right to Counsel'],716-833-0442,"18 Sussex St, Buffalo, NY 14215",['Supporter'],
40.687039,-73.821751,15,24,Queens County,11419,www.chhayacdc.org,Chhaya CDC Richmond Hill Center,['Statewide Right to Counsel'],718-374-3371,"121-18 Liberty Ave 2nd floor, South Richmond Hill, NY 11419",['Supporter'],
40.78855775,-73.97686025,47,67,New York County,10024,https://stpaulandstandrew.org/,St. Paul and St. Andrew United Methodist Church,['Statewide Right to Counsel'],212-362-3179,"263 W 86th St, New York, NY 10024",['Supporter'],
40.7173052,-74.0069976,27,66,New York County,10013,www.legalservicesnyc.org,Legal Services NYC,"['Clean Hands', 'Statewide Right to Counsel', 'Defend Right to Counsel', 'Winter Eviction Moratorium']",646-442-3575,"40 Worth St Suite 606, New York, NY 10013",['Coalition Member'],
,,,,,,https://longislandactivists.org/,Long Island Activists,"['Clean Hands', 'Statewide Right to Counsel', 'Defend Right to Counsel', 'Winter Eviction Moratorium']",,"Long Island, NY",['Campaign Member'],
40.7130009,-74.0083413,27,66,New York County,10007,https://youthrepresent.org/,Youth Represent,['Statewide Right to Counsel'],646-759-8080,"11 Park Pl #1512, New York, NY 10007",['Endorser'],
40.640815183673475,-74.00057378,17,49,Kings County,11220,www.cpc-nyc.org,Chinese-American Planning Council ,['Statewide Right to Counsel'],718-431-2320,"4812 9th Ave, Brooklyn, NY 11220",['Endorser'],
40.750803510204086,-73.99633851,47,75,New York County,10001,https://lssa2320.org/,Legal Services Staff Association 2320 (LSSA 2320),['Statewide Right to Counsel'],212-228-0097,"350 W 31st St, New York, NY 10001",['Endorser'],
40.692693,-73.991017,26,52,Kings County,11201,https://www.accessjusticebrooklyn.org/,Access Justice Brooklyn,['Statewide Right to Counsel'],718-624-3894,"44 Court Street, Suite 1206,k Brooklyn, NY 11201",['Endorser'],
,,,,,,https://buffalo-dsa.org/,Buffalo Democratic Socialists of America,['Statewide Right to Counsel'],,"Buffalo, NY",['Endorser'],
42.9914215,-78.833507,61,140,Erie County,14150,https://episcopalpartnership.org/,Episcopal Diocese WNY,['Statewide Right to Counsel'],716-881-0660,"1064 Brighton Road, Tonawanda, NY 14150",['Supporter'],
41.03116738099204,-73.76686565,37,93,Westchester County,10601,https://westchesterlegislators.com/,Westchester County Board of Legislators,['Statewide Right to Counsel'],,"148 Martine Ave, White Plains, NY 10601",['Endorser'],
41.1296231,-73.9906921,38,96,Rockland County,10956,www.centerforsafetyandchange.org,Center for Safety & Change,['Statewide Right to Counsel'], 845-634-3391,"9 Johnsons Ln, New City, NY 10956",['Endorser'],
40.8167916,-73.9198227,29,84,Bronx County,10451,https://www.legalservicesnyc.org/our-program/bronx,Bronx Legal Services,"['Statewide Right to Counsel', 'Clean Hands', 'Winter Eviction Moratorium', 'Defend Right to Counsel']",917-661-4500,"349 East 149th St., 10th Floor, Bronx, NY 10451",['Coalition Member'],
42.50934355,-78.67542406,60,147,Erie County,14141,https://www.lasroc.org/,Legal Aid Society of Rochester,['Statewide Right to Counsel'],585-232-4090,"One W Main St, Rochester, NY 14614",['Endorser'],
40.7544434,-73.9813232,28,75,New York County,10110,https://www.nydis.org/,New York Disaster Interfaith Services,['Statewide Right to Counsel'],212-669-6100,"4 W 43rd St Suite #407, New York, NY 10036",['Supporter'],
40.707843000000004,-73.95650843,18,50,Kings County,11211,www.communitiesresist.org,Communities Resist,"['Clean Hands', 'Statewide Right to Counsel', 'Defend Right to Counsel', 'Winter Eviction Moratorium']", 646-974-8761,"312 Broadway 2nd Floor, Brooklyn, NY 11211",['Coalition Member'],
40.760295,-73.984503,28,75,New York County,10019,https://www.alaa.org/,Association of Legal Aid Attorneys -- UAW Local 2325,['Statewide Right to Counsel'],212-343-0708,"1600 50, Broadway, New York, NY 10004",['Endorser'],
40.659735049999995,-74.00358737,26,51,Kings County,11232,https://brooklynevictiondefense.org/en/,Brooklyn Eviction Defense,['Winter Eviction Moratorium'],917-982-2265,"Brooklyn, NY",['Endorser'],
40.743327,-73.917577,12,37,Queens County,11104,www.catholicmigration.org,Catholic Migration Services,"['Clean Hands', 'Statewide Right to Counsel', 'Defend Right to Counsel', 'Winter Eviction Moratorium']",347-472-3500,"47-01 Queens Blvd #203b, Sunnyside, NY 11104",['Coalition Member'],
42.6535144,-73.7613522,46,109,Albany County,12210,https://www.laborreligion.org/,Greater New York Labor Religion Coalition,['Statewide Right to Counsel'],,"85 Chestnut St., Albany, NY 12210",['Supporter'],
42.651765049999995,-73.75200146,46,109,Albany County,12207,www.preventchildabuseny.org,Prevent Child Abuse New York,"['Clean Hands', 'Statewide Right to Counsel', 'Defend Right to Counsel', 'Winter Eviction Moratorium']",800-244-5373,"1 Steuben Place Suite 120, Albany, NY 12207",['Campaign Member'],
40.93293027961433,-73.89869699,35,90,Westchester County,10701,https://www.hvjc.org/,Hudson Valley Justice Center - Yonkers,"['Statewide Right to Counsel', 'Clean Hands', 'Defend Right to Counsel', 'Winter Eviction Moratorium']",914-308-3490 ,"30 S Broadway, Suite 701, Yonkers, NY 10701",['Campaign Member'],
,,,,,,https://mcah.squarespace.com/,Mamaroneck Coalition for Affordable Housing,"['Winter Eviction Moratorium', 'Statewide Right to Counsel']",,"Mamaroneck, NY",['Endorser'],
41.50027116797425,-74.03136429,39,104,Orange County,12550,https://www.hvjc.org/,Hudson Valley Justice Center - Orange County,"['Statewide Right to Counsel', 'Clean Hands', 'Defend Right to Counsel', 'Winter Eviction Moratorium']",914-308-3490,"10 Little Britain Road, Suite, Newburgh, NY 12550 202",['Campaign Member'],
40.912048,-73.837594,36,89,Westchester County,10550,https://mvut.org/,Mt Vernon United Tenants,"['Clean Hands', 'Statewide Right to Counsel', 'Defend Right to Counsel', 'Winter Eviction Moratorium']",914-699-1114,"2 Gramatan Avenue, Room 312, PO Box 2107, Mt. Vernon, NY",['Campaign Member'],
43.1491088,-77.7124535,56,137,Monroe County,14624,https://gatespres.org/,Gates Presbyterian Church,['Statewide Right to Counsel'],585-247-5292,"1049 Wegman Rd, Rochester, NY 14624",['Supporter'],
42.443833749999996,-76.48578542,52,125,Tompkins County,14850,www.lawschool.cornell.edu,Cornell Law School Tenants Advocacy Practicum,['Statewide Right to Counsel'],607-255-5141,"Myron Taylor Hall, Ithaca, NY 14853",['Endorser'],
43.3285808,-73.68721606,45,114,Warren County,12804,https://www.umcq.org/,Queensbury United Methodist Church,['Statewide Right to Counsel'],518-793-9728,"460 Aviation Rd, Queensbury, NY 12804",['Supporter'],
40.6371634,-74.1338219,23,61,Richmond County,10302,https://maketheroadny.org/,Make the Road New York - Staten Island,['Statewide Right to Counsel'],718-727-1222,"161 Port Richmond Avenue, Staten Island, NY 10302",['Endorser'],
40.77165130434783,-73.95491674,28,76,New York County,10075,https://www.cbyarmonk.org/,Congregation B'nai Yisrael,['Statewide Right to Counsel'],212-879-1558,"335 E 77th St, New York, NY 10075",['Supporter'],
40.7150191,-73.8315347,14,27,Queens County,11375,www.queensdefenders.com,Queens Defenders,['Statewide Right to Counsel'],718-261-3047,"118-21 Queens Blvd, Forest Hills, NY 11375",['Endorser'],
40.6648125,-73.8866216,19,60,Kings County,11207,https://ucceny.org/,United Community Centers Inc,['Statewide Right to Counsel'],718-649-7979,"613 New Lots Ave, Brooklyn, NY 11207",['Endorser'],
40.6626998,-73.8962794,19,60,Kings County,11207,https://hcr.ny.gov/location/east-new-york-urban-youth-corps-inc,East Newyork Urban Youth Corps,['Statewide Right to Counsel'],718-922-2311,"539 Alabama Ave, Brooklyn, NY 11207",['Endorser'],
40.544665800000004,-74.1816976,24,62,Richmond County,10312,https://www.messiahny.org/,Messiah Lutheran Church,['Statewide Right to Counsel'],718-356-1050,"205 Jefferson Blvd, Staten Island, NY 10312",['Supporter'],
40.715806516129035,-73.99030223,27,65,New York County,10002,www.caaav.org,CAAAV: Organizing Asian Communities,"['Clean Hands', 'Statewide Right to Counsel', 'Defend Right to Counsel', 'Winter Eviction Moratorium']",212-473-6485,"55 Hester St, New York, NY 10002",['Campaign Member'],
42.6502385,-73.7548659,46,109,Albany County,12207,www.npcnys.org,"Neighborhood Preservation Coalition of New York State, Inc.","['Clean Hands', 'Statewide Right to Counsel', 'Defend Right to Counsel', 'Winter Eviction Moratorium']",518-432-6757,"126 State St Suite 302, Albany, NY 12207",['Campaign Member'],
42.6559972,-73.765033,46,109,Albany County,12210,https://firstpresalbany.org/,First Presbyterian Church of Albany,['Statewide Right to Counsel'],518-449-7332,"362 State St, Albany, NY 12210",['Supporter'],
40.84064244,-73.91869869,29,84,Bronx County,10452,,Sanctuary Church,['Statewide Right to Counsel'],,"14 W 170th St, Bronx, NY 10452",['Supporter'],
40.84681759090909,-73.93729514,31,72,New York County,10033,www.nmic.org,Northern Manhattan Improvement Corporation,"['Clean Hands', 'Statewide Right to Counsel', 'Defend Right to Counsel', 'Winter Eviction Moratorium']",212-822-8300,"45 Wadsworth Ave, New York, NY 10033",['Coalition Member'],
40.720289,-73.58378,6,18,Nassau County,11556,https://www.chaplains.care/,New York State Chaplain Task Force,['Statewide Right to Counsel'],718-749-8534,"405 RXR Plaza, Uniondale, NY 11556",['Supporter'],
41.0320414,-73.7673361,37,93,Westchester County,10601,https://www.hvjc.org/,Hudson Valley Justice Center - Westchester County,"['Statewide Right to Counsel', 'Clean Hands', 'Defend Right to Counsel', 'Winter Eviction Moratorium']",914-308-3490,"19 Court Street, Suite 305, White Plains, NY 10601",['Campaign Member'],
40.76654,-73.1960336,4,6,Suffolk County,11722,https://empirejustice.org/,Empire Justice Center - Long Island,"['Clean Hands', 'Statewide Right to Counsel', 'Defend Right to Counsel', 'Winter Eviction Moratorium']",631-533-5240,"320 Carleton Ave, Central Islip, NY 11722",['Campaign Member'],
40.714104,-74.006487,27,66,New York County,10007,https://mobilizationforjustice.org/,Mobilization For Justice,"['Clean Hands', 'Statewide Right to Counsel', 'Defend Right to Counsel', 'Winter Eviction Moratorium']",212-417-3700,"299 Broadway, Brooklyn, NY 10007",['Coalition Member'],
40.713795600000005,-73.9887524,27,65,New York County,10002,https://socialists.nyc/working-groups/,NYC DSA Housing Working Group,"['Statewide Right to Counsel', 'Winter Eviction Moratorium']",,"14 Jefferson St, New York, NY 10002",['Endorser'],
40.7173052,-74.0069976,27,66,New York County,10013,https://volsprobono.org/,Volunteers of Legal Service,['Statewide Right to Counsel'],212-966-4400,"40 Worth St Suite 829, New York, NY 10013",['Endorser'],
40.8385615,-73.9172203,32,84,Bronx County,10452,www.casapower.org,CASA: Community Action for Safe Apartments,"['Clean Hands', 'Statewide Right to Counsel', 'Defend Right to Counsel', 'Winter Eviction Moratorium']",718-716-8000,"35 Marcy Pl, Bronx, NY 10452",['Coalition Member'],
42.653103214285714,-73.75362705,46,109,Albany County,12207,https://www.albanyny.gov/2187/Albany-Common-Council,Albany Common Council,['Statewide Right to Counsel'],518-434-5087,"24 Eagle St # 202, Albany, NY 12207",['Endorser'],
42.88561371428571,-78.87451859,63,141,Erie County,14202,https://ecbavlp.com/,"Erie County Bar Association Volunteer Lawyers Project, Inc.",['Statewide Right to Counsel'],716-847-0662,"438 Main St 7th floor, Buffalo, NY 14202",['Endorser'],
40.76716995652174,-73.95833243,28,76,New York County,10021,https://www.lenoxhill.org/,Lenox Hill Neighborhood House ,['Statewide Right to Counsel'],212-744-5022,"331 E 70th St, New York, NY 10021",['Endorser'],
43.159806979591835,-77.61153745,56,137,Monroe County,14604,https://www.vocal-ny.org/chapter/rochester/,VOCAL-NY - Rochester,['Statewide Right to Counsel'],718-802-9540,"189 N Water St, Rochester, NY 14604, USA",['Endorser'],
41.039662686317094,-73.76699252,37,93,Westchester County,10603,https://empirejustice.org/,Empire Justice Center - White Plains,"['Clean Hands', 'Statewide Right to Counsel', 'Defend Right to Counsel', 'Winter Eviction Moratorium']",,"80 North Broadway, White Plains, NY 10603",['Campaign Member'],
40.679187,-73.98166,26,52,Kings County,11217,https://www.vocal-ny.org/,VOCAL-NY - New York,['Statewide Right to Counsel'],718-802-9540,"300 Douglass St, Brooklyn, NY 11217",['Endorser'],
40.74283,-73.913165,12,37,Queens County,11377,www.woodsideonthemove.org,Woodside On the Move,"['Statewide Right to Counsel', 'Winter Eviction Moratorium']",718-476-8449,"51-23 Queens Blvd, Queens, NY 11377",['Endorser'],
43.165713,-77.5628964,55,138,Monroe County,14609,https://www.covenantroc.org/,Covenant United Methodist Church,['Statewide Right to Counsel'],585-456 - 1979,"1124 Culver Road, Rochester, NY 14609",['Supporter'],
42.9007341,-78.8696585,63,141,Erie County,14202,https://wnyhomeless.org/,Homeless Alliance of Western NY,['Statewide Right to Counsel'],716-853-1101,"960 Main St, Buffalo, NY 14202",['Endorser'],
43.155421399999994,-77.61310156,56,137,Monroe County,14614,https://empirejustice.org/,Empire Justice Center - Rochester,"['Clean Hands', 'Statewide Right to Counsel', 'Defend Right to Counsel', 'Winter Eviction Moratorium']",585-454-4060,"One West Main Street, Ste. 200, Rochester, NY 14614",['Campaign Member'],
40.78040478000204,-73.09676938,8,7,Suffolk County,11716,www.lifairhousing.org,Long Island Housing Services Inc,"['Clean Hands', 'Statewide Right to Counsel', 'Defend Right to Counsel', 'Winter Eviction Moratorium']",631-567-5111,"640 Johnson Ave, Bohemia, NY 11716",['Campaign Member'],
,,,,,,,,,,,,
,,,,,,,,,,,,
,,,,,,,,,,,,
,,,,,,,,,,,,
,,,,,,,,,,,,
,,,,,,,,,,,,
,,,,,,,,,,,,
,,,,,,,,,,,,
,,,,,,,,,,,,
,,,,,,,,,,,,
,,,,,,,,,,,,
,,,,,,,,,,,,
,,,,,,,,,,,,
,,,,,,,,,,,,
,,,,,,,,,,,,
,,,,,,,,,,,,
,,,,,,,,,,,,
,,,,,,,,,,,,
,,,,,,,,,,,,
,,,,,,,,,,,,
,,,,,,,,,,,,
,,,,,,,,,,,,
,,,,,,,,,,,,
,,,,,,,,,,,,
,,,,,,,,,,,,
,,,,,,,,,,,,
,,,,,,,,,,,,
,,,,,,,,,,,,
,,,,,,,,,,,,
,,,,,,,,,,,,
,,,,,,,,,,,,
,,,,,,,,,,,,
,,,,,,,,,,,,
,,,,,,,,,,,,
,,,,,,,,,,,,
,,,,,,,,,,,,
,,,,,,,,,,,,
,,,,,,,,,,,,
,,,,,,,,,,,,
,,,,,,,,,,,,
,,,,,,,,,,,,
,,,,,,,,,,,,
,,,,,,,,,,,,
,,,,,,,,,,,,
,,,,,,,,,,,,
,,,,,,,,,,,,
,,,,,,,,,,,,
,,,,,,,,,,,,
,,,,,,,,,,,,
,,,,,,,,,,,,
,,,,,,,,,,,,
,,,,,,,,,,,,
,,,,,,,,,,,,
,,,,,,,,,,,,
,,,,,,,,,,,,
,,,,,,,,,,,,
,,,,,,,,,,,,
,,,,,,,,,,,,
,,,,,,,,,,,,
,,,,,,,,,,,,
,,,,,,,,,,,,
,,,,,,,,,,,,
,,,,,,,,,,,,
,,,,,,,,,,,,
,,,,,,,,,,,,
,,,,,,,,,,,,
,,,,,,,,,,,,
,,,,,,,,,,,,
,,,,,,,,,,,,
,,,,,,,,,,,,
,,,,,,,,,,,,
,,,,,,,,,,,,
,,,,,,,,,,,,
,,,,,,,,,,,,
,,,,,,,,,,,,
,,,,,,,,,,,,
,,,,,,,,,,,,
,,,,,,,,,,,,
,,,,,,,,,,,,
,,,,,,,,,,,,
,,,,,,,,,,,,
,,,,,,,,,,,,
,,,,,,,,,,,,
,,,,,,,,,,,,
,,,,,,,,,,,,
,,,,,,,,,,,,
,,,,,,,,,,,,
,,,,,,,,,,,,
,,,,,,,,,,,,
,,,,,,,,,,,,
,,,,,,,,,,,,
,,,,,,,,,,,,
,,,,,,,,,,,,
,,,,,,,,,,,,
,,,,,,,,,,,,
,,,,,,,,,,,,
,,,,,,,,,,,,
,,,,,,,,,,,,
,,,,,,,,,,,,
,,,,,,,,,,,,
,,,,,,,,,,,,
,,,,,,,,,,,,
,,,,,,,,,,,,
,,,,,,,,,,,,
,,,,,,,,,,,,
,,,,,,,,,,,,
,,,,,,,,,,,,
,,,,,,,,,,,,
,,,,,,,,,,,,
,,,,,,,,,,,,
,,,,,,,,,,,,
,,,,,,,,,,,,
,,,,,,,,,,,,
,,,,,,,,,,,,
